start=new Date('2022-04-16T00:00:00.000Z').valueOf();
sats=[{"MEAN_ANOMALY":"100.3284","BSTAR":"-0.00874530000000","FILE":"3403567","TLE_LINE2":"2 51866  53.2175 290.0777 0001262  71.3374 100.3284 15.61911123  3684","RA_OF_ASC_NODE":"290.0777","PERIAPSIS":"381.286","EPHEMERIS_TYPE":"0","LAUNCH_DATE":"2022-03-03","REV_AT_EPOCH":"368","COUNTRY_CODE":"US","MEAN_ELEMENT_THEORY":"SGP4","MEAN_MOTION":"15.61911123","NORAD_CAT_ID":"51866","GP_ID":"201345136","OBJECT_TYPE":"PAYLOAD","CENTER_NAME":"EARTH","ELEMENT_SET_NO":"999","OBJECT_ID":"2022-022Q","TLE_LINE1":"1 51866U 22022Q   22105.91667824 -.00710744  00000-0 -87453-2 0  9991","ARG_OF_PERICENTER":"71.3374","ECCENTRICITY":"0.00012620","EPOCH":"2022-04-15T22:00:00.999936","INCLINATION":"53.2175","APOAPSIS":"382.992","CLASSIFICATION_TYPE":"U","MEAN_MOTION_DOT":"-0.00710744","MEAN_MOTION_DDOT":"0.0000000000000","RCS_SIZE":"LARGE","DECAY_DATE":null,"REF_FRAME":"TEME","TIME_SYSTEM":"UTC","SEMIMAJOR_AXIS":"6760.274","SITE":"AFETR","OBJECT_NAME":"STARLINK-3553","PERIOD":"92.195"},{"SITE":"AFETR","PERIOD":"92.165","OBJECT_NAME":"STARLINK-3590","SEMIMAJOR_AXIS":"6758.799","DECAY_DATE":null,"RCS_SIZE":"LARGE","TIME_SYSTEM":"UTC","REF_FRAME":"TEME","MEAN_MOTION_DDOT":"0.0000000000000","MEAN_MOTION_DOT":"-0.00710998","APOAPSIS":"381.503","CLASSIFICATION_TYPE":"U","INCLINATION":"53.2175","EPOCH":"2022-04-15T22:00:00.999936","ECCENTRICITY":"0.00012420","ARG_OF_PERICENTER":"84.1120","TLE_LINE1":"1 51867U 22022R   22105.91667824 -.00710998  00000-0 -85752-2 0  9993","OBJECT_TYPE":"PAYLOAD","GP_ID":"201345322","MEAN_MOTION":"15.62422515","NORAD_CAT_ID":"51867","OBJECT_ID":"2022-022R","ELEMENT_SET_NO":"999","CENTER_NAME":"EARTH","COUNTRY_CODE":"US","MEAN_ELEMENT_THEORY":"SGP4","REV_AT_EPOCH":"368","PERIAPSIS":"379.824","EPHEMERIS_TYPE":"0","LAUNCH_DATE":"2022-03-03","RA_OF_ASC_NODE":"290.0755","FILE":"3403567","TLE_LINE2":"2 51867  53.2175 290.0755 0001242  84.1120 103.3899 15.62422515  3688","BSTAR":"-0.00857520000000","MEAN_ANOMALY":"103.3899"},{"ARG_OF_PERICENTER":"67.8981","ECCENTRICITY":"0.00013040","EPOCH":"2022-04-15T22:00:00.999936","INCLINATION":"53.2175","APOAPSIS":"382.283","CLASSIFICATION_TYPE":"U","MEAN_MOTION_DOT":"-0.00710718","MEAN_MOTION_DDOT":"0.0000000000000","REF_FRAME":"TEME","TIME_SYSTEM":"UTC","DECAY_DATE":null,"RCS_SIZE":"LARGE","SEMIMAJOR_AXIS":"6759.537","OBJECT_NAME":"STARLINK-3578","PERIOD":"92.180","SITE":"AFETR","BSTAR":"-0.00865780000000","MEAN_ANOMALY":"111.7626","TLE_LINE2":"2 51868  53.2175 290.0767 0001304  67.8981 111.7626 15.62166723  8035","FILE":"3403402","RA_OF_ASC_NODE":"290.0767","EPHEMERIS_TYPE":"0","LAUNCH_DATE":"2022-03-03","PERIAPSIS":"380.520","REV_AT_EPOCH":"803","MEAN_ELEMENT_THEORY":"SGP4","COUNTRY_CODE":"US","CENTER_NAME":"EARTH","ELEMENT_SET_NO":"999","OBJECT_ID":"2022-022S","MEAN_MOTION":"15.62166723","NORAD_CAT_ID":"51868","GP_ID":"201317228","OBJECT_TYPE":"PAYLOAD","TLE_LINE1":"1 51868U 22022S   22105.91667824 -.00710718  00000-0 -86578-2 0  9991"},{"RA_OF_ASC_NODE":"290.0729","MEAN_ANOMALY":"114.6258","BSTAR":"-0.00845010000000","FILE":"3403567","TLE_LINE2":"2 51869  53.2175 290.0729 0001243  84.3499 114.6258 15.62806083  3683","MEAN_MOTION":"15.62806083","NORAD_CAT_ID":"51869","OBJECT_TYPE":"PAYLOAD","GP_ID":"201345061","ELEMENT_SET_NO":"999","CENTER_NAME":"EARTH","OBJECT_ID":"2022-022T","TLE_LINE1":"1 51869U 22022T   22105.91667824 -.00711251  00000-0 -84501-2 0  9999","PERIAPSIS":"378.718","EPHEMERIS_TYPE":"0","LAUNCH_DATE":"2022-03-03","REV_AT_EPOCH":"368","MEAN_ELEMENT_THEORY":"SGP4","COUNTRY_CODE":"US","INCLINATION":"53.2175","APOAPSIS":"380.398","CLASSIFICATION_TYPE":"U","ARG_OF_PERICENTER":"84.3499","ECCENTRICITY":"0.00012430","EPOCH":"2022-04-15T22:00:00.999936","SEMIMAJOR_AXIS":"6757.693","SITE":"AFETR","OBJECT_NAME":"STARLINK-3588","PERIOD":"92.142","MEAN_MOTION_DOT":"-0.00711251","MEAN_MOTION_DDOT":"0.0000000000000","DECAY_DATE":null,"RCS_SIZE":"LARGE","REF_FRAME":"TEME","TIME_SYSTEM":"UTC"},{"LAUNCH_DATE":"2022-03-03","EPHEMERIS_TYPE":"0","PERIAPSIS":"379.456","MEAN_ELEMENT_THEORY":"SGP4","COUNTRY_CODE":"US","REV_AT_EPOCH":"368","OBJECT_ID":"2022-022U","ELEMENT_SET_NO":"999","CENTER_NAME":"EARTH","GP_ID":"201344782","OBJECT_TYPE":"PAYLOAD","NORAD_CAT_ID":"51870","MEAN_MOTION":"15.62550385","TLE_LINE1":"1 51870U 22022U   22105.91667824 -.00711064  00000-0 -85331-2 0  9995","MEAN_ANOMALY":"105.7377","BSTAR":"-0.00853310000000","TLE_LINE2":"2 51870  53.2175 290.0746 0001242  85.6272 105.7377 15.62550385  3680","FILE":"3403567","RA_OF_ASC_NODE":"290.0746","MEAN_MOTION_DDOT":"0.0000000000000","MEAN_MOTION_DOT":"-0.00711064","TIME_SYSTEM":"UTC","REF_FRAME":"TEME","DECAY_DATE":null,"RCS_SIZE":"LARGE","SEMIMAJOR_AXIS":"6758.430","PERIOD":"92.157","OBJECT_NAME":"STARLINK-3591","SITE":"AFETR","ARG_OF_PERICENTER":"85.6272","ECCENTRICITY":"0.00012420","EPOCH":"2022-04-15T22:00:00.999936","INCLINATION":"53.2175","CLASSIFICATION_TYPE":"U","APOAPSIS":"381.134"},{"MEAN_MOTION_DOT":"-0.00711237","MEAN_MOTION_DDOT":"0.0000000000000","DECAY_DATE":null,"RCS_SIZE":"LARGE","REF_FRAME":"TEME","TIME_SYSTEM":"UTC","SEMIMAJOR_AXIS":"6757.324","SITE":"AFETR","OBJECT_NAME":"STARLINK-3567","PERIOD":"92.134","ARG_OF_PERICENTER":"78.3436","ECCENTRICITY":"0.00012710","EPOCH":"2022-04-15T22:00:00.999936","INCLINATION":"53.2175","APOAPSIS":"380.048","CLASSIFICATION_TYPE":"U","PERIAPSIS":"378.331","LAUNCH_DATE":"2022-03-03","EPHEMERIS_TYPE":"0","REV_AT_EPOCH":"368","COUNTRY_CODE":"US","MEAN_ELEMENT_THEORY":"SGP4","MEAN_MOTION":"15.62933905","NORAD_CAT_ID":"51871","GP_ID":"201344968","OBJECT_TYPE":"PAYLOAD","ELEMENT_SET_NO":"999","CENTER_NAME":"EARTH","OBJECT_ID":"2022-022V","TLE_LINE1":"1 51871U 22022V   22105.91667824 -.00711237  00000-0 -84074-2 0  9991","BSTAR":"-0.00840740000000","MEAN_ANOMALY":"124.3799","FILE":"3403567","TLE_LINE2":"2 51871  53.2175 290.0719 0001271  78.3436 124.3799 15.62933905  3682","RA_OF_ASC_NODE":"290.0719"},{"CLASSIFICATION_TYPE":"U","APOAPSIS":"380.768","INCLINATION":"53.2175","EPOCH":"2022-04-15T22:00:00.999936","ECCENTRICITY":"0.00012460","ARG_OF_PERICENTER":"77.7330","SITE":"AFETR","OBJECT_NAME":"STARLINK-3554","PERIOD":"92.149","SEMIMAJOR_AXIS":"6758.061","DECAY_DATE":null,"RCS_SIZE":"LARGE","REF_FRAME":"TEME","TIME_SYSTEM":"UTC","MEAN_MOTION_DDOT":"0.0000000000000","MEAN_MOTION_DOT":"-0.00711195","RA_OF_ASC_NODE":"290.0737","FILE":"3403567","TLE_LINE2":"2 51872  53.2175 290.0737 0001246  77.7330 117.4564 15.62678243  3685","BSTAR":"-0.00849200000000","MEAN_ANOMALY":"117.4564","TLE_LINE1":"1 51872U 22022W   22105.91667824 -.00711195  00000-0 -84920-2 0  9995","MEAN_MOTION":"15.62678243","NORAD_CAT_ID":"51872","GP_ID":"201344875","OBJECT_TYPE":"PAYLOAD","ELEMENT_SET_NO":"999","CENTER_NAME":"EARTH","OBJECT_ID":"2022-022W","REV_AT_EPOCH":"368","COUNTRY_CODE":"US","MEAN_ELEMENT_THEORY":"SGP4","PERIAPSIS":"379.084","EPHEMERIS_TYPE":"0","LAUNCH_DATE":"2022-03-03"},{"MEAN_MOTION_DOT":"-0.00711650","MEAN_MOTION_DDOT":"0.0000000000000","DECAY_DATE":null,"RCS_SIZE":"LARGE","REF_FRAME":"TEME","TIME_SYSTEM":"UTC","SEMIMAJOR_AXIS":"6756.219","SITE":"AFETR","OBJECT_NAME":"STARLINK-3582","PERIOD":"92.112","ECCENTRICITY":"0.00012740","ARG_OF_PERICENTER":"77.7332","EPOCH":"2022-04-15T22:00:00.999936","INCLINATION":"53.2175","APOAPSIS":"378.944","CLASSIFICATION_TYPE":"U","PERIAPSIS":"377.223","LAUNCH_DATE":"2022-03-03","EPHEMERIS_TYPE":"0","REV_AT_EPOCH":"368","COUNTRY_CODE":"US","MEAN_ELEMENT_THEORY":"SGP4","NORAD_CAT_ID":"51873","MEAN_MOTION":"15.63317576","GP_ID":"201345415","OBJECT_TYPE":"PAYLOAD","ELEMENT_SET_NO":"999","CENTER_NAME":"EARTH","OBJECT_ID":"2022-022X","TLE_LINE1":"1 51873U 22022X   22105.91667824 -.00711650  00000-0 -82862-2 0  9995","MEAN_ANOMALY":"136.0032","BSTAR":"-0.00828620000000","FILE":"3403567","TLE_LINE2":"2 51873  53.2175 290.0684 0001274  77.7332 136.0032 15.63317576  3687","RA_OF_ASC_NODE":"290.0684"},{"SEMIMAJOR_AXIS":"6756.956","SITE":"AFETR","PERIOD":"92.127","OBJECT_NAME":"STARLINK-3574","MEAN_MOTION_DOT":"-0.00711404","MEAN_MOTION_DDOT":"0.0000000000000","DECAY_DATE":null,"RCS_SIZE":"LARGE","TIME_SYSTEM":"UTC","REF_FRAME":"TEME","INCLINATION":"53.2175","CLASSIFICATION_TYPE":"U","APOAPSIS":"379.685","ARG_OF_PERICENTER":"74.0189","ECCENTRICITY":"0.00012790","EPOCH":"2022-04-15T22:00:00.999936","GP_ID":"201345137","OBJECT_TYPE":"PAYLOAD","NORAD_CAT_ID":"51874","MEAN_MOTION":"15.63061816","OBJECT_ID":"2022-022Y","CENTER_NAME":"EARTH","ELEMENT_SET_NO":"999","TLE_LINE1":"1 51874U 22022Y   22105.91667824 -.00711404  00000-0 -83672-2 0  9993","PERIAPSIS":"377.956","LAUNCH_DATE":"2022-03-03","EPHEMERIS_TYPE":"0","MEAN_ELEMENT_THEORY":"SGP4","COUNTRY_CODE":"US","REV_AT_EPOCH":"368","RA_OF_ASC_NODE":"290.0706","MEAN_ANOMALY":"132.4140","BSTAR":"-0.00836720000000","FILE":"3403567","TLE_LINE2":"2 51874  53.2175 290.0706 0001279  74.0189 132.4140 15.63061816  3681"},{"RA_OF_ASC_NODE":"290.0657","MEAN_ANOMALY":"154.6557","BSTAR":"-0.00821760000000","FILE":"3403567","TLE_LINE2":"2 51875  53.2175 290.0657 0001322  65.4510 154.6557 15.63539017  3689","MEAN_MOTION":"15.63539017","NORAD_CAT_ID":"51875","OBJECT_TYPE":"PAYLOAD","GP_ID":"201345323","CENTER_NAME":"EARTH","ELEMENT_SET_NO":"999","OBJECT_ID":"2022-022Z","TLE_LINE1":"1 51875U 22022Z   22105.91667824 -.00711957  00000-0 -82176-2 0  9995","PERIAPSIS":"376.553","EPHEMERIS_TYPE":"0","LAUNCH_DATE":"2022-03-03","REV_AT_EPOCH":"368","MEAN_ELEMENT_THEORY":"SGP4","COUNTRY_CODE":"US","INCLINATION":"53.2175","APOAPSIS":"378.339","CLASSIFICATION_TYPE":"U","ECCENTRICITY":"0.00013220","ARG_OF_PERICENTER":"65.4510","EPOCH":"2022-04-15T22:00:00.999936","SEMIMAJOR_AXIS":"6755.581","SITE":"AFETR","OBJECT_NAME":"STARLINK-3585","PERIOD":"92.099","MEAN_MOTION_DDOT":"0.0000000000000","MEAN_MOTION_DOT":"-0.00711957","RCS_SIZE":"LARGE","DECAY_DATE":null,"REF_FRAME":"TEME","TIME_SYSTEM":"UTC"}];
